OBJECT_NAME,OBJECT_ID,EPOCH,MEAN_MOTION,ECCENTRICITY,INCLINATION,RA_OF_ASC_NODE,ARG_OF_PERICENTER,MEAN_ANOMALY,EPHEMERIS_TYPE,CLASSIFICATION_TYPE,NORAD_CAT_ID,ELEMENT_SET_NO,REV_AT_EPOCH,BSTAR,MEAN_MOTION_DOT,MEAN_MOTION_DDOT
HBTSS-SV1,2024-028F,2026-06-20T06:03:11.471904,14.97839526,.00117797,39.9889,103.2461,224.1018,135.8835,0,U,58960,999,10764,.28492709E-3,.327E-4,0
STARLINK-31373,2024-031A,2026-06-20T06:35:20.653440,15.30193999,.00014097,53.1594,179.8994,71.0019,289.1134,0,U,58965,999,13224,-.6350464E-5,-.547E-5,0
STARLINK-31449,2024-031B,2026-06-20T06:32:19.019040,15.30183209,.00013077,53.1595,179.8855,83.9600,276.1550,0,U,58966,999,13224,-.6322563E-5,-.546E-5,0
STARLINK-31314,2024-031C,2026-06-20T06:41:25.010880,15.30195599,.00011538,53.1587,179.9227,87.3541,272.7592,0,U,58967,999,13224,.33370932E-4,.629E-5,0
STARLINK-31356,2024-031D,2026-06-20T05:44:28.441248,15.30202433,.00015889,53.1600,152.5059,72.3385,287.7789,0,U,58968,999,13262,.332767E-6,-.35E-5,0
STARLINK-31335,2024-031E,2026-06-20T06:52:18.851520,15.34395867,.0001238,53.1599,176.4268,80.3420,279.7723,0,U,58969,999,13229,.37255444E-4,.883E-5,0
STARLINK-31368,2024-031F,2026-06-20T06:39:54.092160,15.30193314,.00010964,53.1591,179.9236,84.2060,275.9066,0,U,58970,999,13224,.30029455E-4,.53E-5,0
STARLINK-31333,2024-031G,2026-06-20T06:13:25.711968,15.30195781,.00012704,53.1596,167.7264,82.8177,277.2969,0,U,58971,999,13241,.27446429E-4,.454E-5,0
STARLINK-31351,2024-031H,2026-06-20T07:05:43.672704,15.30197360,.00011457,53.1597,180.0244,78.2735,281.8394,0,U,58972,999,13223,.33144716E-4,.623E-5,0
STARLINK-31365,2024-031J,2026-06-20T07:14:50.780832,15.30185863,.00012978,53.1597,180.0654,74.0998,286.0146,0,U,58973,999,13224,.79486482E-4,.1995E-4,0
STARLINK-31361,2024-031K,2026-06-20T07:10:17.616864,15.30211378,.00013766,53.1603,180.0435,56.8377,303.2756,0,U,58974,999,13224,.88318596E-4,.2258E-4,0
STARLINK-31369,2024-031L,2026-06-20T07:19:24.508992,15.30199802,.00011824,53.1594,180.0847,80.2822,279.8312,0,U,58975,999,13222,.4917586E-5,-.213E-5,0
STARLINK-31324,2024-031M,2026-06-20T01:07:45.025824,15.30197769,.00012656,53.1608,181.3171,85.3342,274.7803,0,U,58976,999,13218,.36330799E-4,.717E-5,0
STARLINK-31358,2024-031N,2026-06-20T06:36:51.388992,15.30190937,.00011699,53.1594,179.8905,79.1375,280.9758,0,U,58977,999,13222,.12232223E-4,.3E-7,0
STARLINK-31355,2024-031P,2026-06-20T07:28:31.013184,15.30202279,.00011916,53.1603,180.1240,88.2542,271.8595,0,U,58978,999,13222,.52163005E-4,.1186E-4,0
STARLINK-31380,2024-031Q,2026-06-20T04:24:58.628160,15.30196085,.00012265,53.1593,180.7508,87.8468,272.2673,0,U,58979,999,13220,.23709504E-4,.343E-5,0
STARLINK-31353,2024-031R,2026-06-20T07:30:02.527200,15.30197953,.00011663,53.1602,180.1329,91.0193,269.0941,0,U,58980,999,13222,.22810485E-4,.316E-5,0
STARLINK-31339,2024-031S,2026-06-20T06:16:55.194816,15.34389829,.00011435,53.1594,179.1081,88.0093,272.1041,0,U,58981,999,13223,.31488201E-4,.688E-5,0
STARLINK-31384,2024-031U,2026-06-20T07:41:37.470912,15.34384307,.00008853,53.1595,178.7611,84.7284,275.3820,0,U,58983,999,13224,-.15645767E-4,-.904E-5,0
STARLINK-31379,2024-031V,2026-06-20T06:18:47.183904,15.30193913,.00012524,53.1597,180.5318,91.5766,268.5379,0,U,58984,999,13221,.20952866E-4,.261E-5,0
STARLINK-31385,2024-031W,2026-06-20T06:58:21.969120,15.34390207,.00011065,53.1595,176.4092,107.5377,252.5746,0,U,58985,999,13227,.8260559E-4,.2415E-4,0
STARLINK-31229,2024-031X,2026-06-20T06:27:52.855200,15.30208369,.00014871,53.1607,180.5638,95.3044,264.8127,0,U,58986,999,13221,.3345947E-4,.632E-5,0
CE-SAT-IE,2024-032A,2026-06-19T16:33:50.406336,14.68287866,.00040861,97.9965,225.3212,80.0623,280.1043,0,U,58987,999,12520,.64867225E-4,.327E-5,0
TIRSAT,2024-032C,2026-06-19T16:33:32.384160,14.72465384,.00060081,97.9970,228.9891,130.6730,229.5000,0,U,58989,999,12545,.15011369E-3,.903E-5,0
INSAT-3DS,2024-033A,2026-06-20T02:56:51.374112,1.00271079,.00011569,0.0474,106.6794,330.7348,317.2316,0,U,58990,999,4709,0,-.161E-5,0
ADRAS-J,2024-034A,2026-06-20T00:18:13.495680,15.46706746,.01610362,98.2214,202.4313,102.8451,259.0842,0,U,58992,999,12802,.12679773E-2,.106846E-2,0
MERAH PUTIH 2,2024-035A,2026-06-19T20:15:20.594304,1.00268914,.00012335,0.0162,1.6947,88.4357,234.7192,0,U,58995,999,861,0,0,0
AAC-AIS-SAT3,2023-174DJ,2026-06-20T05:40:16.687200,14.84756774,.00051779,97.6234,219.7617,320.4845,39.5992,0,U,58997,999,14160,.27305375E-3,.2265E-4,0
STARLINK-31468,2024-036A,2026-06-20T03:28:35.876352,15.30196374,.00013321,53.1623,321.9509,97.2687,262.8465,0,U,58998,999,13102,.55439825E-4,.1283E-4,0
STARLINK-31440,2024-036B,2026-06-20T06:39:43.239456,15.30188680,.00010241,53.1610,321.3542,102.5570,257.5545,0,U,58999,999,13022,-.35512869E-3,-.10858E-3,0
