HBTSS-SV1               
1 58960U 24028F   26171.25221611  .00003270  00000+0  28493-3 0  9991
2 58960  39.9889 103.2461 0011779 224.1018 135.8835 14.97839526107641
STARLINK-31373          
1 58965U 24031A   26171.27454460 -.00000547  00000+0 -63505-5 0  9993
2 58965  53.1594 179.8994 0001409  71.0019 289.1134 15.30193999132240
STARLINK-31449          
1 58966U 24031B   26171.27244235 -.00000546  00000+0 -63226-5 0  9990
2 58966  53.1595 179.8855 0001307  83.9600 276.1550 15.30183209132244
STARLINK-31314          
1 58967U 24031C   26171.27876170  .00000629  00000+0  33371-4 0  9997
2 58967  53.1587 179.9227 0001153  87.3541 272.7592 15.30195599132244
STARLINK-31356          
1 58968U 24031D   26171.23921807 -.00000350  00000+0  33277-6 0  9991
2 58968  53.1600 152.5059 0001588  72.3385 287.7789 15.30202433132625
STARLINK-31335          
1 58969U 24031E   26171.28632930  .00000883  00000+0  37255-4 0  9991
2 58969  53.1599 176.4268 0001238  80.3420 279.7723 15.34395867132291
STARLINK-31368          
1 58970U 24031F   26171.27770940  .00000530  00000+0  30029-4 0  9997
2 58970  53.1591 179.9236 0001096  84.2060 275.9066 15.30193314132245
STARLINK-31333          
1 58971U 24031G   26171.25932537  .00000454  00000+0  27446-4 0  9992
2 58971  53.1596 167.7264 0001270  82.8177 277.2969 15.30195781132410
STARLINK-31351          
1 58972U 24031H   26171.29564436  .00000623  00000+0  33145-4 0  9997
2 58972  53.1597 180.0244 0001145  78.2735 281.8394 15.30197360132236
STARLINK-31365          
1 58973U 24031J   26171.30197663  .00001995  00000+0  79486-4 0  9995
2 58973  53.1597 180.0654 0001297  74.0998 286.0146 15.30185863132243
STARLINK-31361          
1 58974U 24031K   26171.29881501  .00002258  00000+0  88319-4 0  9993
2 58974  53.1603 180.0435 0001376  56.8377 303.2756 15.30211378132246
STARLINK-31369          
1 58975U 24031L   26171.30514478 -.00000213  00000+0  49176-5 0  9991
2 58975  53.1594 180.0847 0001182  80.2822 279.8312 15.30199802132225
STARLINK-31324          
1 58976U 24031M   26171.04704891  .00000717  00000+0  36331-4 0  9999
2 58976  53.1608 181.3171 0001265  85.3342 274.7803 15.30197769132185
STARLINK-31358          
1 58977U 24031N   26171.27559478  .00000003  00000+0  12232-4 0  9996
2 58977  53.1594 179.8905 0001169  79.1375 280.9758 15.30190937132220
STARLINK-31355          
1 58978U 24031P   26171.31147006  .00001186  00000+0  52163-4 0  9992
2 58978  53.1603 180.1240 0001191  88.2542 271.8595 15.30202279132222
STARLINK-31380          
1 58979U 24031Q   26171.18401190  .00000343  00000+0  23710-4 0  9995
2 58979  53.1593 180.7508 0001226  87.8468 272.2673 15.30196085132202
STARLINK-31353          
1 58980U 24031R   26171.31252925  .00000316  00000+0  22810-4 0  9992
2 58980  53.1602 180.1329 0001166  91.0193 269.0941 15.30197953132224
STARLINK-31339          
1 58981U 24031S   26171.26174994  .00000688  00000+0  31488-4 0  9999
2 58981  53.1594 179.1081 0001143  88.0093 272.1041 15.34389829132234
STARLINK-31384          
1 58983U 24031U   26171.32057258 -.00000904  00000+0 -15646-4 0  9992
2 58983  53.1595 178.7611 0000885  84.7284 275.3820 15.34384307132245
STARLINK-31379          
1 58984U 24031V   26171.26304611  .00000261  00000+0  20953-4 0  9995
2 58984  53.1597 180.5318 0001252  91.5766 268.5379 15.30193913132210
STARLINK-31385          
1 58985U 24031W   26171.29053205  .00002415  00000+0  82606-4 0  9995
2 58985  53.1595 176.4092 0001106 107.5377 252.5746 15.34390207132272
STARLINK-31229          
1 58986U 24031X   26171.26936175  .00000632  00000+0  33459-4 0  9990
2 58986  53.1607 180.5638 0001487  95.3044 264.8127 15.30208369132212
CE-SAT-IE               
1 58987U 24032A   26170.69016674  .00000327  00000+0  64867-4 0  9999
2 58987  97.9965 225.3212 0004086  80.0623 280.1043 14.68287866125202
TIRSAT                  
1 58989U 24032C   26170.68995815  .00000903  00000+0  15011-3 0  9999
2 58989  97.9970 228.9891 0006008 130.6730 229.5000 14.72465384125454
INSAT-3DS               
1 58990U 24033A   26171.12281683 -.00000161  00000+0  00000+0 0  9998
2 58990   0.0474 106.6794 0001156 330.7348 317.2316  1.00271079 47092
ADRAS-J                 
1 58992U 24034A   26171.01265620  .00106846  00000+0  12680-2 0  9998
2 58992  98.2214 202.4313 0161036 102.8451 259.0842 15.46706746128023
MERAH PUTIH 2           
1 58995U 24035A   26170.84398836  .00000000  00000+0  00000+0 0  9993
2 58995   0.0162   1.6947 0001233  88.4357 234.7192  1.00268914  8612
AAC-AIS-SAT3            
1 58997U 23174DJ  26171.23630425  .00002265  00000+0  27305-3 0  9991
2 58997  97.6234 219.7617 0005177 320.4845  39.5992 14.84756774141602
STARLINK-31468          
1 58998U 24036A   26171.14485968  .00001283  00000+0  55440-4 0  9991
2 58998  53.1623 321.9509 0001332  97.2687 262.8465 15.30196374131027
STARLINK-31440          
1 58999U 24036B   26171.27758379 -.00010858  00000+0 -35513-3 0  9993
2 58999  53.1610 321.3542 0001024 102.5570 257.5545 15.30188680130226
